OBJECT_NAME,OBJECT_ID,EPOCH,MEAN_MOTION,ECCENTRICITY,INCLINATION,RA_OF_ASC_NODE,ARG_OF_PERICENTER,MEAN_ANOMALY,EPHEMERIS_TYPE,CLASSIFICATION_TYPE,NORAD_CAT_ID,ELEMENT_SET_NO,REV_AT_EPOCH,BSTAR,MEAN_MOTION_DOT,MEAN_MOTION_DDOT
IRIDIUM 138,2017-083B,2026-06-20T10:56:43.173600,14.34217598,.0002295,86.3981,320.3442,86.7945,273.3514,0,U,43071,999,44460,.73251E-5,.4E-6,0
IRIDIUM 116,2017-083C,2026-06-20T10:11:03.147072,14.34217502,.0001915,86.3962,320.6477,100.4565,259.6846,0,U,43072,999,44463,-.54342E-5,.5E-7,0
IRIDIUM 130,2017-083D,2026-06-20T09:25:22.579680,14.34220012,.0001949,86.3974,320.9363,93.8613,266.2806,0,U,43073,999,44457,.57032E-4,.179E-5,0
IRIDIUM 151,2017-083E,2026-06-20T10:29:19.220064,14.34217680,.0002145,86.3968,320.7000,93.1387,267.0054,0,U,43074,999,44460,.90478E-5,.45E-6,0
IRIDIUM 134,2017-083F,2026-06-20T09:43:39.159840,14.34218431,.0002099,86.3970,320.7214,92.4966,267.6470,0,U,43075,999,44456,.61567E-4,.192E-5,0
IRIDIUM 137,2017-083G,2026-06-20T10:01:55.194816,14.34217468,.0002244,86.3967,320.8092,103.8470,256.2976,0,U,43076,999,44463,-.70974E-5,0,0
IRIDIUM 141,2017-083H,2026-06-20T09:52:47.144928,14.34217440,.0002094,86.3962,320.6422,90.7699,269.3737,0,U,43077,999,44463,-.12927E-4,-.16E-6,0
IRIDIUM 153,2017-083J,2026-06-20T08:43:55.416576,14.34217910,.0002215,86.3962,289.1424,90.0153,270.1296,0,U,43078,999,44573,.13331E-4,.57E-6,0
IRIDIUM 131,2017-083K,2026-06-20T09:34:31.101312,14.34217700,.0002222,86.3972,320.8335,91.9806,268.1644,0,U,43079,999,44456,.2869E-4,.1E-5,0
IRIDIUM 144,2018-030A,2026-06-20T08:53:03.386976,14.34218182,.0002142,86.3961,289.0687,97.7546,262.3893,0,U,43249,999,43059,.67981E-4,.21E-5,0
IRIDIUM 149,2018-030B,2026-06-20T09:02:11.436864,14.34217939,.0002266,86.3959,289.0331,93.5706,266.5749,0,U,43250,999,43061,.17392E-4,.68E-6,0
IRIDIUM 157,2018-030C,2026-06-20T09:29:35.451744,14.34217878,.000221,86.3962,289.0785,94.1526,265.9923,0,U,43251,999,43059,.17534E-4,.69E-6,0
IRIDIUM 140,2018-030D,2026-06-20T09:56:59.413920,14.34218039,.0002149,86.3961,289.0831,94.4266,265.7176,0,U,43252,999,43065,.21911E-4,.81E-6,0
IRIDIUM 145,2018-030E,2026-06-20T09:38:43.410048,14.34217854,.0002064,86.3962,289.0607,102.1429,257.9998,0,U,43253,999,43058,.1544E-4,.63E-6,0
IRIDIUM 146,2018-030F,2026-06-20T09:11:19.315680,14.34217191,.0002133,86.3961,289.0808,97.8312,262.3126,0,U,43254,999,43059,.56275E-4,.177E-5,0
IRIDIUM 148,2018-030G,2026-06-20T08:25:39.462816,14.34217889,.0002305,86.3963,289.1373,96.2973,263.8486,0,U,43255,999,43062,.1445E-4,.6E-6,0
IRIDIUM 142,2018-030H,2026-06-20T09:20:27.465792,14.34217798,.000213,86.3960,289.0103,99.0648,261.0789,0,U,43256,999,43059,.1971E-4,.75E-6,0
IRIDIUM 150,2018-030J,2026-06-20T08:34:47.421984,14.34217757,.0002153,86.3962,289.1398,94.2809,265.8633,0,U,43257,999,43061,.6794E-5,.39E-6,0
IRIDIUM 143,2018-030K,2026-06-20T09:47:51.414144,14.34218119,.0002135,86.3966,289.2114,96.8149,263.3289,0,U,43258,999,43055,.31381E-4,.108E-5,0
IRIDIUM 161,2018-047C,2026-06-20T06:55:59.570688,14.43280100,.0002568,86.4482,87.1745,83.3146,276.8347,0,U,43478,999,42558,.78987E-4,.286E-5,0
IRIDIUM 152,2018-047D,2026-06-20T07:28:06.314880,14.34218292,.0002328,86.3956,87.0263,82.8248,277.3212,0,U,43479,999,42293,.6637E-4,.206E-5,0
IRIDIUM 147,2018-047E,2026-06-20T07:37:14.266272,14.34218058,.0002147,86.3959,87.0290,86.2008,273.9433,0,U,43480,999,42293,.21948E-4,.81E-6,0
IRIDIUM 110,2018-047F,2026-06-20T07:46:22.291968,14.34218484,.0002538,86.3960,87.1182,80.8268,279.3215,0,U,43481,999,42292,.52403E-4,.167E-5,0
IRIDIUM 162,2018-047G,2026-06-20T06:46:55.255008,14.43283267,.0002254,86.4482,87.0682,82.5309,277.6148,0,U,43482,999,42557,.73032E-4,.266E-5,0
IRIDIUM 160,2018-061A,2026-06-20T09:49:18.501888,14.34217420,.0002176,86.3958,55.4502,85.4709,274.6735,0,U,43569,999,41383,-.92041E-5,-.6E-7,0
IRIDIUM 166,2018-061B,2026-06-20T10:25:50.447424,14.34217963,.0002138,86.3959,55.3901,87.2648,272.8793,0,U,43570,999,41386,.91983E-5,.46E-6,0
IRIDIUM 158,2018-061C,2026-06-20T09:40:10.472736,14.34217742,.0002195,86.3959,55.4133,83.0622,277.0823,0,U,43571,999,41382,.14606E-4,.61E-6,0
IRIDIUM 165,2018-061D,2026-06-20T10:16:42.483936,14.34217444,.0002077,86.3960,55.4492,87.4874,272.6560,0,U,43572,999,41385,.48641E-5,.33E-6,0
IRIDIUM 155,2018-061E,2026-06-20T09:21:54.435168,14.34217628,.0001983,86.3954,55.3337,83.1728,276.9694,0,U,43573,999,41381,-.19774E-5,.14E-6,0
IRIDIUM 154,2018-061F,2026-06-20T10:34:58.372032,14.34217651,.0002157,86.3960,55.4465,88.8669,271.2774,0,U,43574,999,41387,.52021E-4,.165E-5,0
IRIDIUM 163,2018-061G,2026-06-20T10:07:34.369248,14.34217054,.0002234,86.3957,55.3697,83.5171,276.6279,0,U,43575,999,41384,.20884E-4,.78E-6,0
