IRIDIUM 138             
1 43071U 17083B   26171.45605525  .00000040  00000+0  73251-5 0  9999
2 43071  86.3981 320.3442 0002295  86.7945 273.3514 14.34217598444604
IRIDIUM 116             
1 43072U 17083C   26171.42434198  .00000005  00000+0 -54342-5 0  9995
2 43072  86.3962 320.6477 0001915 100.4565 259.6846 14.34217502444638
IRIDIUM 130             
1 43073U 17083D   26171.39262245  .00000179  00000+0  57032-4 0  9993
2 43073  86.3974 320.9363 0001949  93.8613 266.2806 14.34220012444578
IRIDIUM 151             
1 43074U 17083E   26171.43702801  .00000045  00000+0  90478-5 0  9990
2 43074  86.3968 320.7000 0002145  93.1387 267.0054 14.34217680444603
IRIDIUM 134             
1 43075U 17083F   26171.40531435  .00000192  00000+0  61567-4 0  9990
2 43075  86.3970 320.7214 0002099  92.4966 267.6470 14.34218431444565
IRIDIUM 137             
1 43076U 17083G   26171.41799994  .00000000  00000+0 -70974-5 0  9990
2 43076  86.3967 320.8092 0002244 103.8470 256.2976 14.34217468444638
IRIDIUM 141             
1 43077U 17083H   26171.41165677 -.00000016  00000+0 -12927-4 0  9997
2 43077  86.3962 320.6422 0002094  90.7699 269.3737 14.34217440444639
IRIDIUM 153             
1 43078U 17083J   26171.36383584  .00000057  00000+0  13331-4 0  9994
2 43078  86.3962 289.1424 0002215  90.0153 270.1296 14.34217910445738
IRIDIUM 131             
1 43079U 17083K   26171.39897108  .00000100  00000+0  28690-4 0  9993
2 43079  86.3972 320.8335 0002222  91.9806 268.1644 14.34217700444568
IRIDIUM 144             
1 43249U 18030A   26171.37017809  .00000210  00000+0  67981-4 0  9993
2 43249  86.3961 289.0687 0002142  97.7546 262.3893 14.34218182430592
IRIDIUM 149             
1 43250U 18030B   26171.37652126  .00000068  00000+0  17392-4 0  9994
2 43250  86.3959 289.0331 0002266  93.5706 266.5749 14.34217939430614
IRIDIUM 157             
1 43251U 18030C   26171.39554921  .00000069  00000+0  17534-4 0  9990
2 43251  86.3962 289.0785 0002210  94.1526 265.9923 14.34217878430594
IRIDIUM 140             
1 43252U 18030D   26171.41457655  .00000081  00000+0  21911-4 0  9998
2 43252  86.3961 289.0831 0002149  94.4266 265.7176 14.34218039430656
IRIDIUM 145             
1 43253U 18030E   26171.40189132  .00000063  00000+0  15440-4 0  9990
2 43253  86.3962 289.0607 0002064 102.1429 257.9998 14.34217854430584
IRIDIUM 146             
1 43254U 18030F   26171.38286245  .00000177  00000+0  56275-4 0  9998
2 43254  86.3961 289.0808 0002133  97.8312 262.3126 14.34217191430593
IRIDIUM 148             
1 43255U 18030G   26171.35115119  .00000060  00000+0  14450-4 0  9997
2 43255  86.3963 289.1373 0002305  96.2973 263.8486 14.34217889430624
IRIDIUM 142             
1 43256U 18030H   26171.38920678  .00000075  00000+0  19710-4 0  9995
2 43256  86.3960 289.0103 0002130  99.0648 261.0789 14.34217798430599
IRIDIUM 150             
1 43257U 18030J   26171.35749331  .00000039  00000+0  67940-5 0  9997
2 43257  86.3962 289.1398 0002153  94.2809 265.8633 14.34217757430618
IRIDIUM 143             
1 43258U 18030K   26171.40823396  .00000108  00000+0  31381-4 0  9994
2 43258  86.3966 289.2114 0002135  96.8149 263.3289 14.34218119430551
IRIDIUM 161             
1 43478U 18047C   26171.28888392  .00000286  00000+0  78987-4 0  9999
2 43478  86.4482  87.1745 0002568  83.3146 276.8347 14.43280100425582
IRIDIUM 152             
1 43479U 18047D   26171.31118420  .00000206  00000+0  66370-4 0  9997
2 43479  86.3956  87.0263 0002328  82.8248 277.3212 14.34218292422939
IRIDIUM 147             
1 43480U 18047E   26171.31752623  .00000081  00000+0  21948-4 0  9991
2 43480  86.3959  87.0290 0002147  86.2008 273.9433 14.34218058422932
IRIDIUM 110             
1 43481U 18047F   26171.32386912  .00000167  00000+0  52403-4 0  9992
2 43481  86.3960  87.1182 0002538  80.8268 279.3215 14.34218484422928
IRIDIUM 162             
1 43482U 18047G   26171.28258397  .00000266  00000+0  73032-4 0  9994
2 43482  86.4482  87.0682 0002254  82.5309 277.6148 14.43283267425574
IRIDIUM 160             
1 43569U 18061A   26171.40924192 -.00000006  00000+0 -92041-5 0  9999
2 43569  86.3958  55.4502 0002176  85.4709 274.6735 14.34217420413839
IRIDIUM 166             
1 43570U 18061B   26171.43461166  .00000046  00000+0  91983-5 0  9997
2 43570  86.3959  55.3901 0002138  87.2648 272.8793 14.34217963413863
IRIDIUM 158             
1 43571U 18061C   26171.40289899  .00000061  00000+0  14606-4 0  9999
2 43571  86.3959  55.4133 0002195  83.0622 277.0823 14.34217742413823
IRIDIUM 165             
1 43572U 18061D   26171.42826949  .00000033  00000+0  48641-5 0  9991
2 43572  86.3960  55.4492 0002077  87.4874 272.6560 14.34217444413851
IRIDIUM 155             
1 43573U 18061E   26171.39021337  .00000014  00000+0 -19774-5 0  9991
2 43573  86.3954  55.3337 0001983  83.1728 276.9694 14.34217628413813
IRIDIUM 154             
1 43574U 18061F   26171.44095338  .00000165  00000+0  52021-4 0  9997
2 43574  86.3960  55.4465 0002157  88.8669 271.2774 14.34217651413873
IRIDIUM 163             
1 43575U 18061G   26171.42192557  .00000078  00000+0  20884-4 0  9992
2 43575  86.3957  55.3697 0002234  83.5171 276.6279 14.34217054413845
